[{"OBJECT_ID":"2007-037A","OBJECT_NAME":"INSAT 4CR","NORAD_CAT_ID":"32050","OBJECT_TYPE":"PAYLOAD","PERIOD":"1436.103","INCLINATION":"0.0414","APOGEE":"35812.135","PERIGEE":"35761.301","ECCENTRICITY":"0.0006028","MEAN_MOTION":"1.00271351","TLE_LINE1":"1 32050U 07037A   16238.86269574 -.00000105 +00000-0 +00000-0 0  9991","TLE_LINE2":"2 32050 000.0414 282.8523 0006028 325.8232 110.4380 01.00271351015476","LAUNCH_DATE":"2007-09-02","LAUNCH_SITE":"SIRHARIKOTA","OWNER":"INDIA","ORBIT_TYPE":"Geosynchronous","OPERATIONAL_STATUS":"Operational","satInfo":{"lng":76.45510378259597,"lat":-0.058843087748202474,"elevation":-8.62618709401226,"azimuth":238.54489621740404,"range":42673.01775366676,"height":35812.182923634304,"velocity":3.0728122138128917},"x":292,"y":-69,"dx":0.7196748318634126,"dy":-2.9873471572182657},{"OBJECT_ID":"2007-044A","OBJECT_NAME":"OPTUS D2","NORAD_CAT_ID":"32252","OBJECT_TYPE":"PAYLOAD","PERIOD":"1436.184","INCLINATION":"0.0188","APOGEE":"35803.486","PERIGEE":"35773.143","ECCENTRICITY":"0.0003598","MEAN_MOTION":"1.00265656","TLE_LINE1":"1 32252U 07044A   16237.83626765  .00000000  00000-0  10000-3 0  9995","TLE_LINE2":"2 32252   0.0188   6.9762 0003598 151.0649 268.5001  1.00265656 32518","LAUNCH_DATE":"2007-10-05","LAUNCH_SITE":"FRENCH GUIANA","OWNER":"AUSTRALIA","ORBIT_TYPE":"Geosynchronous","OPERATIONAL_STATUS":"Operational","satInfo":{"lng":-147.74308237035405,"lat":-0.13851801065299027,"elevation":-8.706231323320607,"azimuth":102.74308237035403,"range":42670.69134285002,"height":35801.00146534962,"velocity":3.074557303387853},"x":-160,"y":248,"dx":-2.6000405499972903,"dy":1.6409423360329802},{"OBJECT_ID":"2007-044B","OBJECT_NAME":"INTELSAT 11 (PAS 11)","NORAD_CAT_ID":"32253","OBJECT_TYPE":"PAYLOAD","PERIOD":"1436.086","INCLINATION":"0.04","APOGEE":"35798.428","PERIGEE":"35774.377","ECCENTRICITY":"0.0002852","MEAN_MOTION":"1.00272478","TLE_LINE1":"1 32253U 07044B   16239.32519558 -.00000297  00000-0  00000+0 0  9997","TLE_LINE2":"2 32253   0.0400 249.3364 0002852 278.2851 241.4307  1.00272478 32616","LAUNCH_DATE":"2007-10-05","LAUNCH_SITE":"FRENCH GUIANA","OWNER":"INTERNATIONAL TELECOMMUNICATIONS SATELLITE ORGANIZATION (INTELSAT)","ORBIT_TYPE":"Geosynchronous","OPERATIONAL_STATUS":"Operational","satInfo":{"lng":-43.428919199168874,"lat":2.0750416671722505,"elevation":-6.54042525523445,"azimuth":358.42891919916883,"range":42419.24700781844,"height":35792.65946825924,"velocity":3.0741638259312207},"x":-206,"y":-213,"dx":2.2325431742101047,"dy":2.113346683332375},{"OBJECT_ID":"2007-056A","OBJECT_NAME":"STAR ONE C1","NORAD_CAT_ID":"32293","OBJECT_TYPE":"PAYLOAD","PERIOD":"1436.102","INCLINATION":"0.0208","APOGEE":"35798.443","PERIGEE":"35774.965","ECCENTRICITY":"0.0002784","MEAN_MOTION":"1.00271402","TLE_LINE1":"1 32293U 07056A   16238.25293134 -.00000302 +00000-0 +00000-0 0  9992","TLE_LINE2":"2 32293 000.0208 234.1530 0002784 298.4686 187.3771 01.00271402015853","LAUNCH_DATE":"2007-11-14","LAUNCH_SITE":"FRENCH GUIANA","OWNER":"BRAZIL","ORBIT_TYPE":"Geosynchronous","OPERATIONAL_STATUS":"Operational","satInfo":{"lng":-78.51720459441022,"lat":1.7256069516283445,"elevation":-6.881599568288286,"azimuth":33.51720459441022,"range":42466.50439717104,"height":35801.542346193004,"velocity":3.0741002515447273},"x":-294,"y":-59,"dx":0.6119724398050944,"dy":3.012570677920496},{"OBJECT_ID":"2007-056B","OBJECT_NAME":"SKYNET 5B","NORAD_CAT_ID":"32294","OBJECT_TYPE":"PAYLOAD","PERIOD":"1436.039","INCLINATION":"0.0699","APOGEE":"35801.228","PERIGEE":"35769.723","ECCENTRICITY":"0.0003736","MEAN_MOTION":"1.00275784","TLE_LINE1":"1 32294U 07056B   16238.96463987 +.00000115 +00000-0 +00000-0 0  9997","TLE_LINE2":"2 32294 000.0699 357.2396 0003736 164.5998 185.2001 01.00275784032301","LAUNCH_DATE":"2007-11-14","LAUNCH_SITE":"FRENCH GUIANA","OWNER":"UNITED KINGDOM","ORBIT_TYPE":"Geosynchronous","OPERATIONAL_STATUS":"Operational","satInfo":{"lng":61.63335385540579,"lat":0.1813863157180235,"elevation":-8.400908667646393,"azimuth":253.3666461445942,"range":42600.24227219025,"height":35765.2163280651,"velocity":3.0752812183332967},"x":264,"y":-140,"dx":1.4611031782489134,"dy":-2.706017752037937},{"OBJECT_ID":"2007-057A","OBJECT_NAME":"ASTRA 4A (SIRIUS 4)","NORAD_CAT_ID":"32299","OBJECT_TYPE":"PAYLOAD","PERIOD":"1436.104","INCLINATION":"0.0453","APOGEE":"35797.379","PERIGEE":"35776.120","ECCENTRICITY":"0.0002521","MEAN_MOTION":"1.00271239","TLE_LINE1":"1 32299U 07057A   16239.09413947  .00000004  00000-0  00000+0 0  9995","TLE_LINE2":"2 32299   0.0453 295.0313 0002521 220.8542 217.5776  1.00271239 32044","LAUNCH_DATE":"2007-11-17","LAUNCH_SITE":"TYURATAM MISSILE AND SPACE COMPLEX","OWNER":"SOCIÉTÉ EUROPÉENNE DES SATELLITES","ORBIT_TYPE":"Geosynchronous","OPERATIONAL_STATUS":"Operational","satInfo":{"lng":8.774866060872546,"lat":2.076300123982967,"elevation":-6.537231587642782,"azimuth":306.22513393912743,"range":42428.67793109802,"height":35802.33819638975,"velocity":3.073787930825142},"x":46,"y":-290,"dx":3.0378104623339612,"dy":-0.46891346602612327},{"OBJECT_ID":"2007-063B","OBJECT_NAME":"HORIZONS 2","NORAD_CAT_ID":"32388","OBJECT_TYPE":"PAYLOAD","PERIOD":"1436.143","INCLINATION":"0.0131","APOGEE":"35798.578","PERIGEE":"35776.433","ECCENTRICITY":"0.0002626","MEAN_MOTION":"1.00268542","TLE_LINE1":"1 32388U 07063B   16238.81068332 -.00000209  00000-0  00000+0 0  9992","TLE_LINE2":"2 32388   0.0131 111.5089 0002626  51.7254 187.9413  1.00268542 31955","LAUNCH_DATE":"2007-12-21","LAUNCH_SITE":"FRENCH GUIANA","OWNER":"INTERNATIONAL TELECOMMUNICATIONS SATELLITE ORGANIZATION (INTELSAT)","ORBIT_TYPE":"Geosynchronous","OPERATIONAL_STATUS":"Operational","satInfo":{"lng":65.99035440786001,"lat":-0.6758722538476654,"elevation":-9.233281321271768,"azimuth":249.00964559213998,"range":42716.150771398,"height":35787.48104341667,"velocity":3.07454192386574},"x":274,"y":-120,"dx":1.2510016862549345,"dy":-2.808523245870569},{"OBJECT_ID":"2008-003A","OBJECT_NAME":"EXPRESS AM-33","NORAD_CAT_ID":"32478","OBJECT_TYPE":"PAYLOAD","PERIOD":"1436.127","INCLINATION":"0.0339","APOGEE":"35793.189","PERIGEE":"35781.188","ECCENTRICITY":"0.0001423","MEAN_MOTION":"1.00269673","TLE_LINE1":"1 32478U 08003A   16239.58005707 -.00000309  00000-0  00000+0 0  9990","TLE_LINE2":"2 32478   0.0339 273.2148 0001423 347.4361  19.8879  1.00269673 31703","LAUNCH_DATE":"2008-01-28","LAUNCH_SITE":"TYURATAM MISSILE AND SPACE COMPLEX","OWNER":"COMMONWEALTH OF INDEPENDENT STATES","ORBIT_TYPE":"Geosynchronous","OPERATIONAL_STATUS":"Operational","satInfo":{"lng":53.69626898657387,"lat":0.4606413519334841,"elevation":-8.122430263918531,"azimuth":261.30373101342616,"range":42596.64763654655,"height":35792.5605292179,"velocity":3.0742959250765254},"x":242,"y":-174,"dx":1.8201850408727656,"dy":-2.4775435116108735},{"OBJECT_ID":"2008-006A","OBJECT_NAME":"THOR 5","NORAD_CAT_ID":"32487","OBJECT_TYPE":"PAYLOAD","PERIOD":"1436.031","INCLINATION":"0.0588","APOGEE":"35795.868","PERIGEE":"35774.752","ECCENTRICITY":"0.0002504","MEAN_MOTION":"1.00276374","TLE_LINE1":"1 32487U 08006A   16239.18851640 -.00000037  00000-0  00000+0 0  9992","TLE_LINE2":"2 32487   0.0588 266.9078 0002504 259.3781 235.6868  1.00276374 31261","LAUNCH_DATE":"2008-02-11","LAUNCH_SITE":"TYURATAM MISSILE AND SPACE COMPLEX","OWNER":"NORWAY","ORBIT_TYPE":"Geosynchronous","OPERATIONAL_STATUS":"Operational","satInfo":{"lng":14.211357375548909,"lat":1.586081742441401,"elevation":-7.016920444153667,"azimuth":300.78864262445114,"range":42489.39818185455,"height":35809.16755848927,"velocity":3.073522194986889},"x":74,"y":-285,"dx":2.9794622889853337,"dy":-0.7545483096471015},{"OBJECT_ID":"2008-007A","OBJECT_NAME":"WINDS (KIZUNA)","NORAD_CAT_ID":"32500","OBJECT_TYPE":"PAYLOAD","PERIOD":"1436.102","INCLINATION":"0.211","APOGEE":"35796.752","PERIGEE":"35776.664","ECCENTRICITY":"0.0002382","MEAN_MOTION":"1.00271387","TLE_LINE1":"1 32500U 08007A   16238.92132579 -.00000286 +00000-0 +00000-0 0  9990","TLE_LINE2":"2 32500 000.2110 093.0578 0002382 032.5779 323.6414 01.00271387030977","LAUNCH_DATE":"2008-02-23","LAUNCH_SITE":"TANEGASHIMA SPACE CENTER","OWNER":"JAPAN","ORBIT_TYPE":"Geosynchronous","OPERATIONAL_STATUS":"Operational","satInfo":{"lng":41.76894772089729,"lat":-1.0047262974434767,"elevation":-9.559503986003973,"azimuth":273.2310522791027,"range":42723.94813332778,"height":35759.00384188455,"velocity":3.075688900604397},"x":200,"y":-219,"dx":2.2939629735617864,"dy":-2.0488035750722053},{"OBJECT_ID":"2008-013A","OBJECT_NAME":"DIRECTV 11","NORAD_CAT_ID":"32729","OBJECT_TYPE":"PAYLOAD","PERIOD":"1436.092","INCLINATION":"0.022","APOGEE":"35787.852","PERIGEE":"35785.179","ECCENTRICITY":"3.17e-05","MEAN_MOTION":"1.00272075","TLE_LINE1":"1 32729U 08013A   16239.11229942 -.00000154  00000-0  00000+0 0  9996","TLE_LINE2":"2 32729   0.0220 310.6394 0000317 275.0430  50.3310  1.00272075 31018","LAUNCH_DATE":"2008-03-19","LAUNCH_SITE":"SEA LAUNCH","OWNER":"UNITED STATES OF AMERICA","ORBIT_TYPE":"Geosynchronous","OPERATIONAL_STATUS":"Operational","satInfo":{"lng":-104.67634524848346,"lat":-0.849203712346966,"elevation":-9.402199655674478,"azimuth":59.676345248483436,"range":42735.43798727952,"height":35787.81504418722,"velocity":3.07469576583407},"x":-290,"y":74,"dx":-0.77900056327458,"dy":2.9743759303181307}]